OBJECT_NAME,OBJECT_ID,EPOCH,MEAN_MOTION,ECCENTRICITY,INCLINATION,RA_OF_ASC_NODE,ARG_OF_PERICENTER,MEAN_ANOMALY,EPHEMERIS_TYPE,CLASSIFICATION_TYPE,NORAD_CAT_ID,ELEMENT_SET_NO,REV_AT_EPOCH,BSTAR,MEAN_MOTION_DOT,MEAN_MOTION_DDOT
STARLINK-37117,2026-053F,2026-06-13T04:53:01.243104,15.33444019,.00017655,97.2868,39.3455,94.0944,266.0500,0,U,68212,999,1485,.52587487E-3,.1694E-3,0
STARLINK-37116,2026-053G,2026-06-13T04:49:06.442464,15.33442889,.00027766,97.2861,39.3540,112.1576,247.9962,0,U,68213,999,1485,.43683559E-3,.14054E-3,0
STARLINK-35854,2026-053H,2026-06-13T05:40:00.162336,15.33445880,.00014564,97.2854,39.4501,105.6456,254.4947,0,U,68214,999,1484,.31089795E-3,.9975E-4,0
STARLINK-36272,2026-053J,2026-06-13T06:15:14.551776,15.33436694,.0001654,97.2863,39.4212,88.6261,271.5171,0,U,68215,999,1484,.11970668E-3,.379E-4,0
STARLINK-37014,2026-053K,2026-06-13T04:37:21.444384,15.33442949,.00018764,97.2862,39.3657,98.0342,262.1113,0,U,68216,999,1485,.20267327E-3,.6473E-4,0
STARLINK-37011,2026-053L,2026-06-13T04:33:26.752608,15.33443253,.00019835,97.2862,39.3698,97.9379,262.2089,0,U,68217,999,1485,.37339538E-3,.11998E-3,0
STARLINK-37108,2026-053M,2026-06-13T04:29:31.695360,15.33442193,.00018149,97.2864,39.3738,94.4937,265.6513,0,U,68218,999,1485,.26634927E-3,.8533E-4,0
STARLINK-37106,2026-053N,2026-06-13T04:25:36.279552,15.33458813,.00010027,97.2858,39.3734,114.4653,245.6695,0,U,68219,999,1485,.52860238E-3,.17036E-3,0
STARLINK-37030,2026-053P,2026-06-13T04:17:46.901184,15.33447605,.00020856,97.2859,39.3811,116.7368,243.4089,0,U,68220,999,1485,.4987898E-3,.16064E-3,0
STARLINK-37012,2026-053Q,2026-06-13T04:21:42.001632,15.33440220,.00021953,97.2867,39.3789,102.5594,257.5895,0,U,68221,999,1485,.27242853E-3,.8729E-4,0
STARLINK-37110,2026-053R,2026-06-13T05:47:50.863488,15.33465028,.00020129,97.2865,39.4510,87.8147,272.3326,0,U,68222,999,1486,.414156E-3,.13328E-3,0
STARLINK-37025,2026-053S,2026-06-13T05:43:55.259328,15.33441066,.00018675,97.2882,39.4497,95.1482,264.9974,0,U,68223,999,1486,.4178884E-3,.13439E-3,0
STARLINK-36960,2026-053U,2026-06-13T05:36:04.870944,15.33460252,.00002334,97.2862,39.4642,345.3260,14.7976,0,U,68225,999,1484,.71100602E-3,.22959E-3,0
STARLINK-37038,2026-053V,2026-06-13T05:28:15.117600,15.33456879,.00007712,97.2842,39.4667,114.7099,245.4225,0,U,68226,999,1484,.57049127E-3,.18394E-3,0
STARLINK-37083,2026-053W,2026-06-13T05:32:09.998592,15.33456927,.00005845,97.2843,39.4646,106.9652,253.1655,0,U,68227,999,1483,.58251878E-3,.18784E-3,0
STARLINK-37050,2026-053X,2026-06-13T05:24:20.809440,15.33437066,.00020083,97.2865,39.4753,85.7506,274.3966,0,U,68228,999,1484,.45555631E-3,.14657E-3,0
STARLINK-37081,2026-053Y,2026-06-13T06:00:02.000160,15.36798376,.00022162,97.2849,42.4703,122.9273,178.9724,0,U,68229,999,589,-.1245957E+0,-.3888981E-1,0
STARLINK-37100,2026-053Z,2026-06-13T05:20:25.346112,15.33455480,.00008006,97.2841,39.4754,123.5799,236.5521,0,U,68230,999,1486,.48182083E-3,.15517E-3,0
STARLINK-37104,2026-053AA,2026-06-13T05:16:30.633600,15.33455667,.00011991,97.2871,39.4785,109.5909,250.5463,0,U,68231,999,1486,.3760375E-3,.12088E-3,0
STARLINK-37027,2026-054A,2026-06-13T07:23:21.549984,15.34407626,.00014841,53.1588,205.4126,87.7680,272.3492,0,U,68232,999,1373,.85486909E-3,.28624E-3,0
STARLINK-37132,2026-054B,2026-06-12T13:49:23.124576,15.49324377,.00012822,53.1557,209.4289,74.5016,285.6134,0,U,68233,999,1361,.80010775E-3,.44328E-3,0
STARLINK-37101,2026-054C,2026-06-13T06:32:44.532096,15.49353534,.00011364,53.1574,208.8428,80.8311,279.2826,0,U,68234,999,1368,.8568419E-3,.47571E-3,0
STARLINK-36963,2026-054D,2026-06-13T06:35:00.892032,15.34399959,.00011276,53.1575,205.9183,90.1481,269.9650,0,U,68235,999,1372,.62244466E-3,.20712E-3,0
STARLINK-37127,2026-054E,2026-06-12T20:43:28.256736,15.49333663,.00013651,53.1589,210.5547,57.4989,302.6152,0,U,68236,999,1362,.12616958E-2,.70419E-3,0
STARLINK-37095,2026-054F,2026-06-13T06:32:00.106944,15.34417629,.00012006,53.1574,205.9073,94.7518,265.3622,0,U,68237,999,1372,.57476148E-3,.19103E-3,0
STARLINK-37097,2026-054G,2026-06-13T06:00:02.000160,15.34404655,.00016333,53.1592,205.6184,71.4876,3.6771,0,U,68238,999,593,-.6334296E-3,-.2172E-3,0
STARLINK-37096,2026-054H,2026-06-13T07:20:19.677120,15.35173002,.00014988,53.1590,205.4038,215.2355,144.8549,0,U,68239,999,1373,-.49249957E-3,-.17396E-3,0
STARLINK-37092,2026-054J,2026-06-12T15:38:11.675328,15.49326687,.00015412,53.1591,211.3545,62.6102,297.5064,0,U,68240,999,1359,.83261026E-3,.46161E-3,0
STARLINK-37094,2026-054K,2026-06-12T10:09:23.076000,15.30215826,.00011142,53.1575,217.0466,67.7454,292.3665,0,U,68241,999,1349,.84452278E-3,.24749E-3,0
STARLINK-36356,2026-054L,2026-06-12T11:14:33.940032,15.30207861,.00014767,53.1600,216.6232,79.8106,280.3061,0,U,68242,999,1350,.47757639E-3,.13815E-3,0
