STARLINK-37117          
1 68212U 26053F   26164.20348661  .00016940  00000+0  52587-3 0  9993
2 68212  97.2868  39.3455 0001765  94.0944 266.0500 15.33444019 14850
STARLINK-37116          
1 68213U 26053G   26164.20076901  .00014054  00000+0  43684-3 0  9991
2 68213  97.2861  39.3540 0002776 112.1576 247.9962 15.33442889 14858
STARLINK-35854          
1 68214U 26053H   26164.23611299  .00009975  00000+0  31090-3 0  9994
2 68214  97.2854  39.4501 0001456 105.6456 254.4947 15.33445880 14846
STARLINK-36272          
1 68215U 26053J   26164.26058509  .00003790  00000+0  11971-3 0  9992
2 68215  97.2863  39.4212 0001654  88.6261 271.5171 15.33436694 14842
STARLINK-37014          
1 68216U 26053K   26164.19260931  .00006473  00000+0  20267-3 0  9998
2 68216  97.2862  39.3657 0001876  98.0342 262.1113 15.33442949 14858
STARLINK-37011          
1 68217U 26053L   26164.18989297  .00011998  00000+0  37340-3 0  9999
2 68217  97.2862  39.3698 0001983  97.9379 262.2089 15.33443253 14853
STARLINK-37108          
1 68218U 26053M   26164.18717240  .00008533  00000+0  26635-3 0  9993
2 68218  97.2864  39.3738 0001814  94.4937 265.6513 15.33442193 14857
STARLINK-37106          
1 68219U 26053N   26164.18444768  .00017036  00000+0  52860-3 0  9993
2 68219  97.2858  39.3734 0001002 114.4653 245.6695 15.33458813 14859
STARLINK-37030          
1 68220U 26053P   26164.17901506  .00016064  00000+0  49879-3 0  9998
2 68220  97.2859  39.3811 0002085 116.7368 243.4089 15.33447605 14858
STARLINK-37012          
1 68221U 26053Q   26164.18173613  .00008729  00000+0  27243-3 0  9990
2 68221  97.2867  39.3789 0002195 102.5594 257.5895 15.33440220 14855
STARLINK-37110          
1 68222U 26053R   26164.24156092  .00013328  00000+0  41416-3 0  9999
2 68222  97.2865  39.4510 0002012  87.8147 272.3326 15.33465028 14862
STARLINK-37025          
1 68223U 26053S   26164.23883402  .00013439  00000+0  41789-3 0  9997
2 68223  97.2882  39.4497 0001867  95.1482 264.9974 15.33441066 14869
STARLINK-36960          
1 68225U 26053U   26164.23338971  .00022959  00000+0  71101-3 0  9993
2 68225  97.2862  39.4642 0000233 345.3260  14.7976 15.33460252 14840
STARLINK-37038          
1 68226U 26053V   26164.22795275  .00018394  00000+0  57049-3 0  9990
2 68226  97.2842  39.4667 0000771 114.7099 245.4225 15.33456879 14841
STARLINK-37083          
1 68227U 26053W   26164.23067128  .00018784  00000+0  58252-3 0  9991
2 68227  97.2843  39.4646 0000584 106.9652 253.1655 15.33456927 14836
STARLINK-37050          
1 68228U 26053X   26164.22524085  .00014657  00000+0  45556-3 0  9999
2 68228  97.2865  39.4753 0002008  85.7506 274.3966 15.33437066 14849
STARLINK-37081          
1 68229U 26053Y   26164.25002315 -.03888981  00000+0 -12460+0 0  9998
2 68229  97.2849  42.4703 0002216 122.9273 178.9724 15.36798376  5890
STARLINK-37100          
1 68230U 26053Z   26164.22251558  .00015517  00000+0  48182-3 0  9998
2 68230  97.2841  39.4754 0000800 123.5799 236.5521 15.33455480 14869
STARLINK-37104          
1 68231U 26053AA  26164.21979900  .00012088  00000+0  37604-3 0  9993
2 68231  97.2871  39.4785 0001199 109.5909 250.5463 15.33455667 14864
STARLINK-37027          
1 68232U 26054A   26164.30788831  .00028624  00000+0  85487-3 0  9991
2 68232  53.1588 205.4126 0001484  87.7680 272.3492 15.34407626 13737
STARLINK-37132          
1 68233U 26054B   26163.57596209  .00044328  00000+0  80011-3 0  9993
2 68233  53.1557 209.4289 0001282  74.5016 285.6134 15.49324377 13615
STARLINK-37101          
1 68234U 26054C   26164.27273764  .00047571  00000+0  85684-3 0  9994
2 68234  53.1574 208.8428 0001136  80.8311 279.2826 15.49353534 13680
STARLINK-36963          
1 68235U 26054D   26164.27431588  .00020712  00000+0  62244-3 0  9990
2 68235  53.1575 205.9183 0001127  90.1481 269.9650 15.34399959 13721
STARLINK-37127          
1 68236U 26054E   26163.86352149  .00070419  00000+0  12617-2 0  9997
2 68236  53.1589 210.5547 0001365  57.4989 302.6152 15.49333663 13623
STARLINK-37095          
1 68237U 26054F   26164.27222346  .00019103  00000+0  57476-3 0  9995
2 68237  53.1574 205.9073 0001200  94.7518 265.3622 15.34417629 13727
STARLINK-37097          
1 68238U 26054G   26164.25002315 -.00021720  00000+0 -63343-3 0  9996
2 68238  53.1592 205.6184 0001633  71.4876   3.6771 15.34404655  5934
STARLINK-37096          
1 68239U 26054H   26164.30578330 -.00017396  00000+0 -49250-3 0  9993
2 68239  53.1590 205.4038 0001498 215.2355 144.8549 15.35173002 13736
STARLINK-37092          
1 68240U 26054J   26163.65152402  .00046161  00000+0  83261-3 0  9990
2 68240  53.1591 211.3545 0001541  62.6102 297.5064 15.49326687 13597
STARLINK-37094          
1 68241U 26054K   26163.42318375  .00024749  00000+0  84452-3 0  9990
2 68241  53.1575 217.0466 0001114  67.7454 292.3665 15.30215826 13498
STARLINK-36356          
1 68242U 26054L   26163.46844838  .00013815  00000+0  47758-3 0  9993
2 68242  53.1600 216.6232 0001476  79.8106 280.3061 15.30207861 13502
